HST                     
1 20580U 90037B   26194.47969025  .00003768  00000+0  11460-3 0  9996
2 20580  28.4725 260.8360 0002200  88.2424 271.8424 15.31050307792609
POLAR                   
1 23802U 96013A   26194.22503655  .00000225  00000+0  00000+0 0  9991
2 23802  79.8886 226.7431 6496555 208.1823  91.5623  1.29846073145198
SWAS                    
1 25560U 98071A   26195.18137234  .00001606  00000+0  10581-3 0  9995
2 25560  69.8939 157.8986 0008034 231.6434 128.4008 15.09743245501342
CXO                     
1 25867U 99040B   26198.46860485  .00000598  00000+0  00000+0 0  9997
2 25867  56.6226 115.7943 7787013 310.0505   0.4979  0.37805650 17432
XMM-NEWTON              
1 25989U 99066A   26197.27126138  .00000020  00000+0  00000+0 0  9998
2 25989  64.3306 282.6120 4665767  64.4091   0.1022  0.50127411 23149
TERRA                   
1 25994U 99068A   26195.12929899  .00000198  00000+0  49282-4 0  9999
2 25994  97.9442 243.6054 0003368 124.9231 259.1124 14.61123253413541
CLUSTER II-FM7 (SAMBA)  
1 26410U 00041A   26192.68021872  .00012833  00000+0  00000+0 0  9997
2 26410 149.8437  55.3938 9082311 272.8334 359.6328  0.44896530 20420
CLUSTER II-FM8 (TANGO)  
1 26464U 00045B   26193.20090758  .00013276  00000+0  00000+0 0  9990
2 26464 150.0466  56.7498 9087829 274.0539   2.1034  0.44428696 20429
ODIN                    
1 26702U 01007A   26195.10989282  .00281361  30623-4  10013-2 0  9993
2 26702  97.3736 238.0057 0005138 152.5983 207.5561 15.88897453393659
TIMED                   
1 26998U 01055B   26195.10421723  .00000545  00000+0  53059-4 0  9997
2 26998  74.0665 180.8187 0002213 301.8173  58.2796 14.95343227334847
CORIOLIS                
1 27640U 03001A   26194.97384255  .00000051  00000+0  44337-4 0  9998
2 27640  98.7134 201.4500 0014866 132.4818 227.7618 14.19951595218022
SORCE                   
1 27651U 03004A   26194.17261998  .00001531  00000+0  11990-3 0  9995
2 27651  39.9908 113.4042 0018576 240.8928 119.0006 15.03836025275819
MOST                    
1 27843U 03031D   26195.03241282  .00000019  00000+0  28657-4 0  9997
2 27843  98.7052 202.3841 0010007 168.3533 191.7878 14.21327527194520
SCISAT 1                
1 27858U 03036A   26195.16968977  .00000297  00000+0  42525-4 0  9997
2 27858  73.9301 117.7324 0007411 186.0729 174.0359 14.81478303235442
SWIFT                   
1 28485U 04047A   26195.13240000  .00042348  00000+0  31265-3 0  9995
2 28485  20.5531 336.6366 0002018  12.5158 347.5339 15.71082140191106
HINODE (SOLAR-B)        
1 29479U 06041A   26195.02903035  .00000318  00000+0  63042-4 0  9997
2 29479  98.0549 210.7859 0016948 198.2402 161.8197 14.68657420 58812
SHIJIAN-6 02A (SJ-6 02A)
1 29505U 06046A   26195.19999791  .00003541  00000+0  18146-3 0  9999
2 29505  97.6345 236.4720 0004288  64.9490 295.2188 15.17238918 76367
SHIJIAN-6 02B (SJ-6 02B)
1 29506U 06046B   26195.13785244  .00000506  00000+0  43836-4 0  9993
2 29506  97.7149 224.0296 0013511 339.9741  20.0951 15.01436465 74781
FGRST (GLAST)           
1 33053U 08029A   26194.87715060  .00002161  00000+0  73017-4 0  9990
2 33053  25.5829  19.1417 0007749 283.0885  76.8788 15.24072309999915
SDO                     
1 36395U 10005A   26194.20034537 -.00000107  00000+0  00000+0 0  9995
2 36395  34.7041  85.9474 0001955  51.9513 123.0341  1.00277100 60321
CRYOSAT 2               
1 36508U 10013A   26195.16714071  .00000129  00000+0  31266-4 0  9990
2 36508  92.0359 283.8606 0002375  98.5319 261.6158 14.51898161861993
X-SAT                   
1 37389U 11015C   26195.18431618  .00000212  00000+0  10773-3 0  9998
2 37389  98.3520 170.9242 0012706 264.1160  95.8572 14.25214479791529
GCOM-W1 (SHIZUKU)       
1 38337U 12025A   26194.81238590  .00000203  00000+0  55111-4 0  9993
2 38337  98.2023 134.9655 0001329  77.5203 336.8989 14.57089464752910
NUSTAR                  
1 38358U 12031A   26195.25001156  .00002633  00000+0  10896-3 0  9997
2 38358   6.0242 191.0941 0007724 158.2741 101.3492 15.09038343  1306
NEOSSAT                 
1 39089U 13009D   26195.03875465  .00000059  00000+0  35268-4 0  9994
2 39089  98.4189  14.4345 0011381 160.5304 199.6318 14.35835396700599
BRITE-AUSTRIA           
1 39091U 13009F   26195.02401074  .00000083  00000+0  42766-4 0  9995
2 39091  98.4007  13.7972 0010697 153.9873 206.1854 14.36552238700901
IRIS                    
1 39197U 13033A   26195.10086005  .00000507  00000+0  64226-4 0  9997
2 39197  97.9319  34.2931 0023255 228.7790 131.1421 14.85935656704379
HISAKI (SPRINT-A)       
1 39253U 13049A   26194.93657424  .00000083  00000+0  21802-4 0  9998
2 39253  29.7208  84.0116 0136946 233.6933 125.0924 13.55546667635050
CASSIOPE                
1 39265U 13055A   26195.16967332  .00021914 -52811-6  23506-3 0  9999
2 39265  80.9125  33.8905 0283037 331.3754  27.2181 15.27378323671780
STSAT-3                 
1 39422U 13066G   26195.14544977  .00001490  00000+0  11550-3 0  9998
2 39422  97.6186 164.5987 0008937 309.6670  50.3767 15.02882530688258
SWARM B                 
1 39451U 13067A   26195.17025578  .00002061  00000+0  72577-4 0  9997
2 39451  87.7458 334.1196 0002332  81.7254 278.4259 15.28713045687360
